{"type": "FeatureCollection", "features": [ {"type": "Feature", "properties": {"norad_id": 66475, "name": "STARLINK-35538", "group": "last-30-days", "lat": 13.643749141885351, "lon": -118.92777096732408, "alt_km": 413.1104180914799, "timestamp": "2025-12-11T20:41:13.846337+00:00", "meta": {"OBJECT_NAME": "STARLINK-35538", "OBJECT_ID": "2025-262V", "EPOCH": "2025-12-11T15:21:50.485824", "MEAN_MOTION": 15.50624349, "ECCENTRICITY": 0.00019147, "INCLINATION": 43.0001, "RA_OF_ASC_NODE": 77.4689, "ARG_OF_PERICENTER": 271.4275, "MEAN_ANOMALY": 88.6366, "EPHEMERIS_TYPE": 0, "CLASSIFICATION_TYPE": "U", "NORAD_CAT_ID": 66475, "ELEMENT_SET_NO": 999, "REV_AT_EPOCH": 539, "BSTAR": 0.0017483441, "MEAN_MOTION_DOT": 0.00103764, "MEAN_MOTION_DDOT": 0}, "tle": {"line1": "1 66475U 25262V   25345.64016766  .00103764  00000+0  17483-2 0  9995", "line2": "2 66475  43.0001  77.4689 0001914 271.4275  88.6366 15.50624349  5395"}}, "geometry": {"type": "Point", "coordinates": [-118.92777096732408, 13.643749141885351]}}, {"type": "Feature", "properties": {"norad_id": 66476, "name": "STARLINK-35372", "group": "last-30-days", "lat": 12.363030284769803, "lon": -117.43884990019262, "alt_km": 413.1739734029461, "timestamp": "2025-12-11T20:41:13.846347+00:00", "meta": {"OBJECT_NAME": "STARLINK-35372", "OBJECT_ID": "2025-262W", "EPOCH": "2025-12-11T15:21:21.149568", "MEAN_MOTION": 15.50643698, "ECCENTRICITY": 0.00013866, "INCLINATION": 43.0002, "RA_OF_ASC_NODE": 77.4654, "ARG_OF_PERICENTER": 284.004, "MEAN_ANOMALY": 76.0666, "EPHEMERIS_TYPE": 0, "CLASSIFICATION_TYPE": "U", "NORAD_CAT_ID": 66476, "ELEMENT_SET_NO": 999, "REV_AT_EPOCH": 528, "BSTAR": 0.0028408412, "MEAN_MOTION_DOT": 0.00170386, "MEAN_MOTION_DDOT": 0}, "tle": {"line1": "1 66476U 25262W   25345.63982812  .00170386  00000+0  28408-2 0  9992", "line2": "2 66476  43.0002  77.4654 0001386 284.0040  76.0666 15.50643698  5282"}}, "geometry": {"type": "Point", "coordinates": [-117.43884990019262, 12.363030284769803]}}, {"type": "Feature", "properties": {"norad_id": 66477, "name": "STARLINK-35354", "group": "last-30-days", "lat": 9.635085927584601, "lon": -114.34266413500478, "alt_km": 412.97883364256904, "timestamp": "2025-12-11T20:41:13.846357+00:00", "meta": {"OBJECT_NAME": "STARLINK-35354", "OBJECT_ID": "2025-262X", "EPOCH": "2025-12-11T07:36:34.693344", "MEAN_MOTION": 15.50668561, "ECCENTRICITY": 0.00016097, "INCLINATION": 43.0001, "RA_OF_ASC_NODE": 79.3431, "ARG_OF_PERICENTER": 267.1783, "MEAN_ANOMALY": 92.8893, "EPHEMERIS_TYPE": 0, "CLASSIFICATION_TYPE": "U", "NORAD_CAT_ID": 66477, "ELEMENT_SET_NO": 999, "REV_AT_EPOCH": 534, "BSTAR": 0.0026959533, "MEAN_MOTION_DOT": 0.0016164, "MEAN_MOTION_DDOT": 0}, "tle": {"line1": "1 66477U 25262X   25345.31706821  .00161640  00000+0  26960-2 0  9996", "line2": "2 66477  43.0001  79.3431 0001609 267.1783  92.8893 15.50668561  5341"}}, "geometry": {"type": "Point", "coordinates": [-114.34266413500478, 9.635085927584601]}}, {"type": "Feature", "properties": {"norad_id": 66478, "name": "STARLINK-35283", "group": "last-30-days", "lat": 8.282980667909442, "lon": -112.83929435076304, "alt_km": 412.85227059100816, "timestamp": "2025-12-11T20:41:13.846370+00:00", "meta": {"OBJECT_NAME": "STARLINK-35283", "OBJECT_ID": "2025-262Y", "EPOCH": "2025-12-11T07:36:04.808448", "MEAN_MOTION": 15.50692325, "ECCENTRICITY": 0.00017473, "INCLINATION": 43, "RA_OF_ASC_NODE": 79.3398, "ARG_OF_PERICENTER": 260.3131, "MEAN_ANOMALY": 99.7532, "EPHEMERIS_TYPE": 0, "CLASSIFICATION_TYPE": "U", "NORAD_CAT_ID": 66478, "ELEMENT_SET_NO": 999, "REV_AT_EPOCH": 534, "BSTAR": 0.0032392192, "MEAN_MOTION_DOT": 0.00195292, "MEAN_MOTION_DDOT": 0}, "tle": {"line1": "1 66478U 25262Y   25345.31672232  .00195292  00000+0  32392-2 0  9991", "line2": "2 66478  43.0000  79.3398 0001747 260.3131  99.7532 15.50692325  5349"}}, "geometry": {"type": "Point", "coordinates": [-112.83929435076304, 8.282980667909442]}}, {"type": "Feature", "properties": {"norad_id": 66479, "name": "STARLINK-35581", "group": "last-30-days", "lat": 11.107074315581414, "lon": -116.00272809363994, "alt_km": 413.34702220353665, "timestamp": "2025-12-11T20:41:13.846380+00:00", "meta": {"OBJECT_NAME": "STARLINK-35581", "OBJECT_ID": "2025-262Z", "EPOCH": "2025-12-11T15:20:51.362304", "MEAN_MOTION": 15.506173, "ECCENTRICITY": 0.00015898, "INCLINATION": 43.0004, "RA_OF_ASC_NODE": 77.461, "ARG_OF_PERICENTER": 271.2867, "MEAN_ANOMALY": 88.7811, "EPHEMERIS_TYPE": 0, "CLASSIFICATION_TYPE": "U", "NORAD_CAT_ID": 66479, "ELEMENT_SET_NO": 999, "REV_AT_EPOCH": 539, "BSTAR": 0.0018832674, "MEAN_MOTION_DOT": 0.00111886, "MEAN_MOTION_DDOT": 0}, "tle": {"line1": "1 66479U 25262Z   25345.63948336  .00111886  00000+0  18833-2 0  9999", "line2": "2 66479  43.0004  77.4610 0001589 271.2867  88.7811 15.50617300  5394"}}, "geometry": {"type": "Point", "coordinates": [-116.00272809363994, 11.107074315581414]}}, {"type": "Feature", "properties": {"norad_id": 66480, "name": "STARLINK-35670", "group": "last-30-days", "lat": 7.233108281833597, "lon": -111.68269811183768, "alt_km": 414.1262894797992, "timestamp": "2025-12-11T20:41:13.846390+00:00", "meta": {"OBJECT_NAME": "STARLINK-35670", "OBJECT_ID": "2025-262AA", "EPOCH": "2025-12-11T15:19:22.464480", "MEAN_MOTION": 15.50632185, "ECCENTRICITY": 0.00016686, "INCLINATION": 43.0003, "RA_OF_ASC_NODE": 77.453, "ARG_OF_PERICENTER": 292.4213, "MEAN_ANOMALY": 67.6471, "EPHEMERIS_TYPE": 0, "CLASSIFICATION_TYPE": "U", "NORAD_CAT_ID": 66480, "ELEMENT_SET_NO": 999, "REV_AT_EPOCH": 539, "BSTAR": 0.0022531818, "MEAN_MOTION_DOT": 0.0013439, "MEAN_MOTION_DDOT": 0}, "tle": {"line1": "1 66480U 25262AA  25345.63845445  .00134390  00000+0  22532-2 0  9994", "line2": "2 66480  43.0003  77.4530 0001668 292.4213  67.6471 15.50632185  5390"}}, "geometry": {"type": "Point", "coordinates": [-111.68269811183768, 7.233108281833597]}}, {"type": "Feature", "properties": {"norad_id": 66481, "name": "STARLINK-35698", "group": "last-30-days", "lat": 5.946750471552853, "lon": -110.27802114428883, "alt_km": 414.15799039802914, "timestamp": "2025-12-11T20:41:13.846400+00:00", "meta": {"OBJECT_NAME": "STARLINK-35698", "OBJECT_ID": "2025-262AB", "EPOCH": "2025-12-11T15:18:52.907040", "MEAN_MOTION": 15.50619658, "ECCENTRICITY": 0.00014945, "INCLINATION": 43.0004, "RA_OF_ASC_NODE": 77.4498, "ARG_OF_PERICENTER": 285.2045, "MEAN_ANOMALY": 74.865, "EPHEMERIS_TYPE": 0, "CLASSIFICATION_TYPE": "U", "NORAD_CAT_ID": 66481, "ELEMENT_SET_NO": 999, "REV_AT_EPOCH": 539, "BSTAR": 0.0020280216, "MEAN_MOTION_DOT": 0.00120658, "MEAN_MOTION_DDOT": 0}, "tle": {"line1": "1 66481U 25262AB  25345.63811235  .00120658  00000+0  20280-2 0  9995", "line2": "2 66481  43.0004  77.4498 0001494 285.2045  74.8650 15.50619658  5394"}}, "geometry": {"type": "Point", "coordinates": [-110.27802114428883, 5.946750471552853]}}, {"type": "Feature", "properties": {"norad_id": 66482, "name": "STARLINK-35648", "group": "last-30-days", "lat": 4.660089358058536, "lon": -108.88334215358151, "alt_km": 414.19932498557955, "timestamp": "2025-12-11T20:41:13.846410+00:00", "meta": {"OBJECT_NAME": "STARLINK-35648", "OBJECT_ID": "2025-262AC", "EPOCH": "2025-12-11T15:18:23.183712", "MEAN_MOTION": 15.50608502, "ECCENTRICITY": 0.00016735, "INCLINATION": 43.0001, "RA_OF_ASC_NODE": 77.4468, "ARG_OF_PERICENTER": 270.6994, "MEAN_ANOMALY": 89.3674, "EPHEMERIS_TYPE": 0, "CLASSIFICATION_TYPE": "U", "NORAD_CAT_ID": 66482, "ELEMENT_SET_NO": 999, "REV_AT_EPOCH": 523, "BSTAR": 0.00095038499, "MEAN_MOTION_DOT": 0.00055871, "MEAN_MOTION_DDOT": 0}, "tle": {"line1": "1 66482U 25262AC  25345.63776833  .00055871  00000+0  95038-3 0  9998", "line2": "2 66482  43.0001  77.4468 0001673 270.6994  89.3674 15.50608502  5235"}}, "geometry": {"type": "Point", "coordinates": [-108.88334215358151, 4.660089358058536]}}, {"type": "Feature", "properties": {"norad_id": 66483, "name": "STARLINK-35654", "group": "last-30-days", "lat": 3.3246486354401474, "lon": -107.44492198338885, "alt_km": 413.83374838155123, "timestamp": "2025-12-11T20:41:13.846420+00:00", "meta": {"OBJECT_NAME": "STARLINK-35654", "OBJECT_ID": "2025-262AD", "EPOCH": "2025-12-11T15:17:53.336832", "MEAN_MOTION": 15.50642502, "ECCENTRICITY": 0.00021538, "INCLINATION": 43.0001, "RA_OF_ASC_NODE": 77.4431, "ARG_OF_PERICENTER": 257.4372, "MEAN_ANOMALY": 102.6247, "EPHEMERIS_TYPE": 0, "CLASSIFICATION_TYPE": "U", "NORAD_CAT_ID": 66483, "ELEMENT_SET_NO": 999, "REV_AT_EPOCH": 539, "BSTAR": 0.002466252, "MEAN_MOTION_DOT": 0.00147434, "MEAN_MOTION_DDOT": 0}, "tle": {"line1": "1 66483U 25262AD  25345.63742288  .00147434  00000+0  24663-2 0  9998", "line2": "2 66483  43.0001  77.4431 0002153 257.4372 102.6247 15.50642502  5393"}}, "geometry": {"type": "Point", "coordinates": [-107.44492198338885, 3.3246486354401474]}}, {"type": "Feature", "properties": {"norad_id": 66484, "name": "STARLINK-35371", "group": "last-30-days", "lat": 2.0162903749510313, "lon": -106.0394591158705, "alt_km": 414.4709737284393, "timestamp": "2025-12-11T20:41:13.846430+00:00", "meta": {"OBJECT_NAME": "STARLINK-35371", "OBJECT_ID": "2025-262AE", "EPOCH": "2025-12-11T15:17:24.038592", "MEAN_MOTION": 15.50644165, "ECCENTRICITY": 0.00013158, "INCLINATION": 43.0001, "RA_OF_ASC_NODE": 77.4416, "ARG_OF_PERICENTER": 288.2599, "MEAN_ANOMALY": 71.8118, "EPHEMERIS_TYPE": 0, "CLASSIFICATION_TYPE": "U", "NORAD_CAT_ID": 66484, "ELEMENT_SET_NO": 999, "REV_AT_EPOCH": 539, "BSTAR": 0.0028524623, "MEAN_MOTION_DOT": 0.00171103, "MEAN_MOTION_DDOT": 0}, "tle": {"line1": "1 66484U 25262AE  25345.63708378  .00171103  00000+0  28525-2 0  9992", "line2": "2 66484  43.0001  77.4416 0001315 288.2599  71.8118 15.50644165  5390"}}, "geometry": {"type": "Point", "coordinates": [-106.0394591158705, 2.0162903749510313]}}]}